EUTELSAT 21B            
1 38992U 12062B   25362.75863772  .00000152  00000+0  00000+0 0  9991
2 38992   0.0646 358.0564 0003227 285.9959 108.1099  1.00272759 48116
EUTELSAT 70B            
1 39020U 12069A   25362.81769919 -.00000021  00000+0  00000+0 0  9992
2 39020   0.0604 356.2549 0004031 262.4836 203.6496  1.00271083 47800
EUTELSAT 117 WEST A     
1 39122U 13012A   25362.65983706  .00000010  00000+0  00000+0 0  9995
2 39122   0.0113 343.7780 0002971 297.6535 296.6779  1.00270870 46722
EUTELSAT 7B             
1 39163U 13022A   25362.68445057  .00000070  00000+0  00000+0 0  9992
2 39163   0.0686  16.5692 0004886 305.5284  28.6981  1.00272183 46239
EXPRESS-AT1             
1 39612U 14010A   25362.76548442  .00000101  00000+0  00000+0 0  9995
2 39612   0.0158 275.2227 0001092 229.0404 284.7904  1.00272439 43107
EXPRESS-AT2             
1 39613U 14010B   25362.23794859 -.00000259  00000+0  00000+0 0  9998
2 39613   0.0161 351.3622 0001874 288.9881  42.1256  1.00270075 42781
EUTELSAT 3B             
1 39773U 14030A   25362.75499770  .00000042  00000+0  00000+0 0  9997
2 39773   0.0599 358.1457 0004314 240.0583 134.1477  1.00270592 42358
EUTELSAT 115 WEST B     
1 40425U 15010B   25362.51761611 -.00000002  00000+0  00000+0 0  9999
2 40425   0.0096 157.6308 0000417 300.1362  70.8989  1.00266764 39688
